var tle = [
	["ASTRA 2B", "1 26494U 00054A   14089.13538316  .00000126  00000-0  53300-3 0  3881", "2 26494   0.0789  27.6591 0002934 344.7859 255.0401  1.00271975 49595"],
	["AMC-7 (GE-7)", "1 26495U 00054B   14086.64429494  .00000068  00000-0  10000-3 0  3459", "2 26495   0.0213 337.6274 0002979  31.6516 270.6344  1.00272486 49587"],
	["NSS-11 (AAP-1)", "1 26554U 00059A   14087.89597338 -.00000374  00000-0  10000-3 0  6107", "2 26554   0.0135 298.1411 0002832  82.8412 235.9697  1.00270989 49447"],
	["N-SAT-110 (JCSAT-110)", "1 26559U 00060A   14087.83042737 -.00000380  00000-0  10000-3 0  5674", "2 26559   0.0102 254.7750 0000572 211.3589 129.0126  1.00269532 49377"],
	["AMC-6 (GE-6)", "1 26580U 00067A   14089.34485943 -.00000288  00000-0  10000-3 0  4624", "2 26580   0.0440  26.6284 0002656 343.3290 229.8214  1.00270561 49241"],
	["INTELSAT 12 (IS-12)", "1 26590U 00068A   14087.10131128  .00000108  00000-0  10000-3 0  2157", "2 26590   0.0331  48.1609 0002658 331.8534 246.8825  1.00273656 49140"],
	["INTELSAT 1R (IS-1R)", "1 26608U 00072A   14088.10696550 -.00000312  00000-0  10000-3 0  8602", "2 26608   0.0436 318.4571 0000462 297.3229 279.1551  1.00271469 49005"],
	["ANIK F1", "1 26624U 00076A   14089.47582350 -.00000103  00000-0  00000+0 0  2761", "2 26624   0.0132 149.1043 0002095 256.2280 206.4314  1.00272123 48999"],
	["ASTRA 2D", "1 26638U 00081A   14089.18117556  .00000121  00000-0  53300-3 0  5365", "2 26638   1.3675  76.0101 0000362 318.8081 245.8571  1.00268199 48701"],
	["AMC-8 (GE-8)", "1 26639U 00081B   14088.36410076  .00000075  00000-0  10000-3 0  3397", "2 26639   0.0205 314.5082 0002327  66.0195 158.2187  1.00273363 48660"],
	["TURKSAT 2A", "1 26666U 01002A   14087.09989155  .00000116  00000-0  10000-3 0  4790", "2 26666   0.0633 349.7767 0005292  25.2393 248.4035  1.00277738 48390"],
	["SKYNET 4F", "1 26695U 01005B   14089.20300806 -.00000265  00000-0  10000-3 0   680", "2 26695   7.2641  45.8994 0002539 336.7432 203.9969  1.00271606 48144"],
	["EUTELSAT 28A", "1 26719U 01011A   14089.18206451  .00000121  00000-0  10000-3 0  6745", "2 26719   0.0688 352.0562 0003763  34.8995 254.5253  1.00270908 47845"],
	["XM-2 (ROCK)", "1 26724U 01012A   14089.41301738 -.00000052  00000-0  10000-3 0  7770", "2 26724   0.1810 286.3567 0003090  29.8702 264.9016  1.00271771 47814"],
	["XM-1 (ROLL)", "1 26761U 01018A   14089.41301738 -.00000051  00000-0  10000-3 0  6348", "2 26761   0.1688 267.1413 0003989 311.3719   2.6033  1.00272453 47284"],
	["INTELSAT 10 (IS-10)", "1 26766U 01019A   14088.10821453  .00000098  00000-0  10000-3 0  4786", "2 26766   0.0005 173.1943 0002398 211.3270 248.3418  1.00271636 47175"],
	["INTELSAT 901 (IS-901)", "1 26824U 01024A   14089.26934396 -.00000169  00000-0  10000-3 0  2795", "2 26824   0.0566  45.3911 0003429 320.7860 260.3496  1.00271421 46938"],
	["ASTRA 2C", "1 26853U 01025A   14084.68132450  .00000095  00000-0  53300-3 0    54", "2 26853   0.0305 302.6999 0004316  71.8332  73.0612  1.00274247 46837"],
	["ARTEMIS", "1 26863U 01029A   14089.00244529  .00000095  00000-0  10000-3 0  6934", "2 26863  11.1382  46.2970 0002671 341.9019 181.3899  1.00269701 47673"],
	["INTELSAT 902 (IS-902)", "1 26900U 01039A   14088.04703956  .00000004  00000-0  10000-3 0  2851", "2 26900   0.0139 122.0131 0002916 256.8826 246.3895  1.00272580 46098"],
	["EUTELSAT 8 WEST A", "1 26927U 01042A   14086.11111170 -.00000094  00000-0  10000-3 0   523", "2 26927   0.0632 333.2181 0005172  40.4916 202.6768  1.00273011 45813"],
	["DIRECTV 4S", "1 26985U 01052A   14089.35318766 -.00000141  00000-0  00000+0 0  2808", "2 26985   0.0298 249.7597 0001286 125.4588 198.3583  1.00269995 45258"],
	["INSAT-3C", "1 27298U 02002A   14088.86043067 -.00000106  00000-0  00000+0 0  6047", "2 27298   0.0176 231.8066 0006436 185.5497 153.5399  1.00272227 44622"],
	["ECHOSTAR 7", "1 27378U 02006A   14088.28823041 -.00000030  00000-0  10000-3 0  4672", "2 27378   0.0106 342.2768 0001221  57.3878 131.8813  1.00272572 44315"],
	["INTELSAT 904 (IS-904)", "1 27380U 02007A   14088.10794307  .00000019  00000-0  10000-3 0  3607", "2 27380   0.0178  84.2029 0003081 299.1091 261.9693  1.00273425 44341"],
	["TDRS 9", "1 27389U 02011A   14087.23944684 -.00000288  00000-0  10000-3 0  3800", "2 27389   2.8217 101.4830 0014354 294.4605 194.7667  1.00266847 45682"],
	["JCSAT-2A", "1 27399U 02015A   14088.78475222 -.00000195  00000-0  00000+0 0  1746", "2 27399   0.0103 230.8527 0001644 142.0212 250.7169  1.00270618 44014"],
	["ASTRA 3A", "1 27400U 02015B   14088.55438374  .00000044  00000-0  53300-3 0   567", "2 27400   1.5272  74.9791 0000996 270.1251 224.4710  1.00273911 44014"],
	["INTELSAT 903 (IS-903)", "1 27403U 02016A   14088.23733883 -.00000267  00000-0  00000+0 0   225", "2 27403   0.0153 284.0660 0002998  92.5824 220.8400  1.00271709 44002"],
	["NSS-7", "1 27414U 02019A   14088.37275407 -.00000184  00000-0  53300-3 0  3426", "2 27414   0.0128 197.5038 0002320 174.6758 288.6769  1.00271031 43838"],
	["DIRECTV 5 (TEMPO 1)", "1 27426U 02023A   14088.57719188 -.00000085  00000-0  10000-3 0  3919", "2 27426   0.0110 164.6227 0003371 216.4581 263.4540  1.00272205 43576"],
	["INTELSAT 905 (IS-905)", "1 27438U 02027A   14086.28639909 -.00000213  00000-0  10000-3 0  8518", "2 27438   0.0123 262.8152 0002589  90.1111 270.2945  1.00271379 43304"],
	["EXPRESS-A4", "1 27441U 02029A   14088.37054446 -.00000139  00000-0  10000-3 0  5247", "2 27441   3.9222  65.2960 0002438   3.4662 237.3006  1.00271547 43223"],
	["GALAXY 3C (G-3C)", "1 27445U 02030A   14089.34662855 -.00000179  00000-0  10000-3 0  9989", "2 27445   0.0255 356.9612 0000261 258.3274 322.0776  1.00270640 43215"],
	["EUTELSAT 5 WEST A", "1 27460U 02035A   14088.30634890 -.00000072  00000-0  10000-3 0  1405", "2 27460   0.0515   6.1357 0004922 356.7348 288.9927  1.00271789 42991"],
	["N-STAR C", "1 27461U 02035B   14087.72742074 -.00000334  00000-0  10000-3 0  8863", "2 27461   2.3535  72.6453 0001499 250.6708 260.6013  1.00269688 42990"],
	["EUTELSAT 8 WEST C", "1 27499U 02038A   14089.09323735 -.00000091  00000-0  00000+0 0  5297", "2 27499   0.0412 300.9479 0004728  26.1993 246.2692  1.00270602 42514"],
	["ECHOSTAR 8", "1 27501U 02039A   14088.51056112 -.00000271  00000-0  10000-3 0  4283", "2 27501   0.0010 186.1522 0002899 193.2219 274.3467  1.00271038 42526"],
	["EUTELSAT 12 WEST A", "1 27508U 02040A   14087.22020005 -.00000130  00000-0  10000-3 0  2395", "2 27508   0.0684 340.6884 0003464  78.3301 193.2703  1.00271299 42499"],
	["METEOSAT-8 (MSG-1)", "1 27509U 02040B   14089.18926480 -.00000006  00000-0  00000+0 0  8387", "2 27509   2.6969  62.3476 0001137  22.5872 174.2891  1.00267939 42503"],
	["INTELSAT 906 (IS-906)", "1 27513U 02041A   14086.65953536 -.00000014  00000-0  10000-3 0   885", "2 27513   0.0062 267.6322 0003424 130.2572  88.6667  1.00271577 42365"],
	["KODAMA (DRTS)", "1 27516U 02042B   14089.05450782 -.00000263  00000-0  00000+0 0  3807", "2 27516   2.8122  69.8427 0002053 291.0308 296.8416  1.00272082 42348"],
	["KALPANA-1 (METSAT 1)", "1 27525U 02043A   14088.86043067 -.00000104  00000-0  00000+0 0  9327", "2 27525   4.2321  64.1766 0009577 217.8966 288.7722  1.00271508 42301"],
	["HISPASAT 1D", "1 27528U 02044A   14088.37342125 -.00000246  00000-0  00000+0 0   423", "2 27528   0.0481 319.0903 0005289  39.5936 292.3997  1.00270359 42232"],
	["EUTELSAT 33B", "1 27554U 02051A   14087.79310772  .00000126  00000-0  10000-3 0  1509", "2 27554   0.0561  89.8264 0001642  84.7259 330.1350  1.00263746 41629"],
	["TDRS 10", "1 27566U 02055A   14089.44353957  .00000058  00000-0  10000-3 0   785", "2 27566   2.8841  63.6810 0006470 209.8990 259.5404  1.00276556 41522"],
	["NSS-6", "1 27603U 02057A   14087.86443737 -.00000298  00000-0  53300-3 0  9167", "2 27603   0.0422  75.5091 0001788 274.7361 242.1096  1.00269454 41368"],
	["NIMIQ 2", "1 27632U 02062A   14089.23051330 -.00000308  00000-0  00000+0 0  9259", "2 27632   0.0140 223.2999 0002031 276.7750  67.4420  1.00269541 41234"],
	["INTELSAT 907 (IS-907)", "1 27683U 03007A   14086.13404884 -.00000231  00000-0  00000+0 0  6394", "2 27683   0.0089 155.5278 0003089 197.5934 212.1004  1.00270647 40715"],
	["INSAT-3A", "1 27714U 03013A   14089.05090463 -.00000286  00000-0  10000-3 0  1956", "2 27714   0.0258 125.4452 0003518 198.2986 335.3870  1.00268869 40217"],
	["GALAXY 12 (G-12)", "1 27715U 03013B   14089.42528963  .00000030  00000-0  10000-3 0  9335", "2 27715   0.0186 158.2069 0001914 228.7870 184.8188  1.00273030 40265"],
	["ASIASAT 4", "1 27718U 03014A   14088.50432678 -.00000389  00000-0  10000-3 0  5798", "2 27718   0.0005 179.5246 0000556 191.0788 119.8755  1.00270759 40197"],
	["HELLAS-SAT 2", "1 27811U 03020A   14086.78597141  .00000123  00000-0  10000-3 0  8208", "2 27811   0.0189 205.3741 0004081 171.3664 130.3255  1.00274793 39725"],
	["AMC-9 (GE-12)", "1 27820U 03024A   14087.56332286 -.00000245  00000-0  00000+0 0  9589", "2 27820   0.0289 280.7973 0003056  84.3167 300.5509  1.00270588 39600"],
	["THURAYA-2", "1 27825U 03026A   14088.64676103  .00000107  00000-0  10000-3 0  7450", "2 27825   3.8256  22.3962 0004183 339.3550 102.0549  1.00272365 39614"],
	["OPTUS C1", "1 27831U 03028B   14087.77063480 -.00000177  00000-0  10000-3 0   574", "2 27831   0.0284 149.9121 0002484 234.1638 235.4108  1.00271031 39560"],
	["ECHOSTAR 12 (RAINBOW 1)", "1 27852U 03033A   14086.86498715 -.00000311  00000-0  00000+0 0    08", "2 27852   0.0397  39.4183 0001566   9.7552  26.0512  1.00273936 39222"],
	["GALAXY 23 (G-23)", "1 27854U 03034A   14086.42680279 -.00000015  00000-0  00000+0 0  9326", "2 27854   0.0046 191.8889 0003054 183.9481 201.5849  1.00271802 38997"],
	["EUTELSAT 33A", "1 27948U 03043A   14087.22213403  .00000126  00000-0  10000-3 0  1059", "2 27948   0.0527 352.7411 0004129   6.5445 299.3343  1.00274302 38563"],
	["INSAT-3E", "1 27951U 03043E   14089.05035815  .00000052  00000-0  10000-3 0  3099", "2 27951   0.1155  87.7508 0007119 296.9222 236.2080  1.00285297 38481"]

];